NORAD_CAT_ID,OBJECT_NAME,OBJECT_TYPE,EPOCH,MEAN_MOTION,ECCENTRICITY,INCLINATION,RA_OF_ASC_NODE,ARG_OF_PERICENTER,MEAN_ANOMALY,BSTAR,MEAN_MOTION_DOT,MEAN_MOTION_DDOT,TLE_LINE0,TLE_LINE1,TLE_LINE2,SEMIMAJOR_AXIS,PERIOD,APOGEE,PERIGEE,DECAYED
56788.0,STARLINK-6336,PAYLOAD,2024-08-01 11:27:47,14.98332051,0.000311,70.001,0.0143,271.5016,88.5787,4.2585e-05,4.15e-06,0.0,0 STARLINK-6336,1 56788U 23078X   24214.47763722  .00000415  00000-0  42585-4 0  9993,2 56788  70.0010   0.0143 0003110 271.5016  88.5787 14.98332051 65515,6950.187,96.107,574.213,569.89,0.0
56788.0,STARLINK-6336,PAYLOAD,2024-08-01 19:28:27,14.98342795,0.0003193,70.0012,359.173,272.2985,87.7809,0.00013377,1.504e-05,0.0,0 STARLINK-6336,1 56788U 23078X   24214.81142691  .00001504  00000-0  13377-3 0  9993,2 56788  70.0012 359.1730 0003193 272.2985  87.7809 14.98342795 65827,6950.153,96.106,574.238,569.799,0.0
56788.0,STARLINK-6336,PAYLOAD,2024-08-02 03:29:08,14.98328651,0.0002948,70.0029,358.3321,276.56,83.5223,8.8671e-05,9.65e-06,0.0,0 STARLINK-6336,1 56788U 23078X   24215.14523664  .00000965  00000-0  88671-4 0  9993,2 56788  70.0029 358.3321 0002948 276.5600  83.5223 14.98328651 65874,6950.197,96.107,574.111,570.013,0.0
56788.0,STARLINK-6336,PAYLOAD,2024-08-02 14:42:05,14.98322641,0.0003153,70.0016,357.1524,270.2785,89.8013,0.00011722,1.306e-05,0.0,0 STARLINK-6336,1 56788U 23078X   24215.61256033  .00001306  00000-0  11722-3 0  9990,2 56788  70.0016 357.1524 0003153 270.2785  89.8013 14.98322641 65684,6950.216,96.107,574.272,569.889,0.0
56788.0,STARLINK-6336,PAYLOAD,2024-08-02 19:30:29,14.98326913,0.0003206,70.0016,356.6478,271.278,88.8012,0.00016816,1.914e-05,0.0,0 STARLINK-6336,1 56788U 23078X   24215.81283707  .00001914  00000-0  16816-3 0  9994,2 56788  70.0016 356.6478 0003206 271.2780  88.8012 14.98326913 65719,6950.202,96.107,574.296,569.839,0.0
56788.0,STARLINK-6336,PAYLOAD,2024-08-03 11:31:49,14.98336894,0.0003144,70.0019,354.9649,271.5366,88.5432,-1.1215e-05,-2.27e-06,0.0,0 STARLINK-6336,1 56788U 23078X   24216.48043506 -.00000227  00000-0 -11215-4 0  9996,2 56788  70.0019 354.9649 0003144 271.5366  88.5432 14.98336894 66079,6950.172,96.107,574.222,569.851,0.0
56788.0,STARLINK-6336,PAYLOAD,2024-08-03 14:44:05,14.98337842,0.0003143,70.0021,354.6282,271.5754,88.5045,3.9653e-06,-4.6e-07,0.0,0 STARLINK-6336,1 56788U 23078X   24216.61395346 -.00000046  00000-0  39653-5 0  9998,2 56788  70.0021 354.6282 0003143 271.5754  88.5045 14.98337842 65839,6950.169,96.106,574.218,569.849,0.0
56788.0,STARLINK-6336,PAYLOAD,2024-08-03 19:32:29,14.98345385,0.0003167,70.002,354.1234,270.321,89.7586,2.2705e-05,1.78e-06,0.0,0 STARLINK-6336,1 56788U 23078X   24216.81422646  .00000178  00000-0  22705-4 0  9998,2 56788  70.0020 354.1234 0003167 270.3210  89.7586 14.98345385 66127,6950.145,96.106,574.211,569.809,0.0
56788.0,STARLINK-6336,PAYLOAD,2024-08-04 11:33:50,14.98317439,0.0002976,70.0027,352.4414,268.6069,91.4749,0.00016052,1.822e-05,0.0,0 STARLINK-6336,1 56788U 23078X   24217.48183915  .00001822  00000-0  16052-3 0  9999,2 56788  70.0027 352.4414 0002976 268.6069  91.4749 14.98317439 66225,6950.232,96.108,574.165,570.028,0.0
56788.0,STARLINK-6336,PAYLOAD,2024-08-04 14:46:06,14.9832552,0.0003073,70.0027,352.1049,268.4452,91.6355,3.6075e-05,3.37e-06,0.0,0 STARLINK-6336,1 56788U 23078X   24217.61535699  .00000337  00000-0  36075-4 0  9992,2 56788  70.0027 352.1049 0003073 268.4452  91.6355 14.98325520 65986,6950.207,96.107,574.208,569.936,0.0
56788.0,STARLINK-6336,PAYLOAD,2024-08-04 19:34:30,14.98334115,0.0002714,70.0027,351.5993,263.4202,96.6648,7.4516e-05,7.96e-06,0.0,0 STARLINK-6336,1 56788U 23078X   24217.81563051  .00000796  00000-0  74516-4 0  9998,2 56788  70.0027 351.5993 0002714 263.4202  96.6648 14.98334115 66279,6950.18,96.107,573.931,570.159,0.0
56788.0,STARLINK-6336,PAYLOAD,2024-08-05 18:00:23,14.983358,0.0002925,70.0024,349.2434,263.7762,96.3064,3.4889e-05,3.23e-06,0.0,0 STARLINK-6336,1 56788U 23078X   24218.75026652  .00000323  00000-0  34889-4 0  9998,2 56788  70.0024 349.2434 0002925 263.7762  96.3064 14.98335800 66156,6950.175,96.107,574.073,570.007,0.0
56788.0,STARLINK-6336,PAYLOAD,2024-08-06 02:01:03,14.9833523,0.000295,70.0023,348.4019,265.8331,94.2491,-7.2696e-05,-9.6e-06,0.0,0 STARLINK-6336,1 56788U 23078X   24219.08406802 -.00000960  00000-0 -72696-4 0  9991,2 56788  70.0023 348.4019 0002950 265.8331  94.2491 14.98335230 66460,6950.177,96.107,574.092,569.991,0.0
56788.0,STARLINK-6336,PAYLOAD,2024-08-06 14:50:06,14.98343464,0.0003209,70.0015,347.054,271.6288,88.4504,0.00015766,1.789e-05,0.0,0 STARLINK-6336,1 56788U 23078X   24219.61813415  .00001789  00000-0  15766-3 0  9994,2 56788  70.0015 347.0540 0003209 271.6288  88.4504 14.98343464 66287,6950.151,96.106,574.247,569.786,0.0
56788.0,STARLINK-6336,PAYLOAD,2024-08-06 18:02:22,14.98348361,0.0002926,70.0018,346.7176,267.2949,92.7875,0.00018029,2.06e-05,0.0,0 STARLINK-6336,1 56788U 23078X   24219.75164920  .00002060  00000-0  18029-3 0  9997,2 56788  70.0018 346.7176 0002926 267.2949  92.7875 14.98348361 66562,6950.136,96.106,574.035,569.968,0.0
56788.0,STARLINK-6336,PAYLOAD,2024-08-07 11:39:53,14.9832165,0.000291,70.0022,344.8672,270.7267,89.3558,-0.00010258,-1.316e-05,0.0,0 STARLINK-6336,1 56788U 23078X   24220.48603302 -.00001316  00000-0 -10258-3 0  9992,2 56788  70.0022 344.8672 0002910 270.7267  89.3558 14.98321650 66676,6950.219,96.108,574.106,570.061,0.0
56788.0,STARLINK-6336,PAYLOAD,2024-08-07 18:04:25,14.98323746,0.0003019,70.0018,344.1937,271.9793,88.102,-0.00013455,-1.698e-05,0.0,0 STARLINK-6336,1 56788U 23078X   24220.75307358 -.00001698  00000-0 -13455-3 0  9999,2 56788  70.0018 344.1937 0003019 271.9793  88.1020 14.98323746 66451,6950.212,96.107,574.176,569.979,0.0
56788.0,STARLINK-6336,PAYLOAD,2024-08-08 13:18:01,14.98331251,0.0003035,70.0021,342.1749,272.3069,87.7742,-6.5588e-05,-8.75e-06,0.0,0 STARLINK-6336,1 56788U 23078X   24221.55418934 -.00000875  00000-0 -65588-4 0  9992,2 56788  70.0021 342.1749 0003035 272.3069  87.7742 14.98331251 66572,6950.189,96.107,574.163,569.945,0.0
56788.0,STARLINK-6336,PAYLOAD,2024-08-08 18:06:25,14.98346491,0.0002969,70.0016,341.6694,270.8058,89.2761,8.7689e-06,1.2e-07,0.0,0 STARLINK-6336,1 56788U 23078X   24221.75445638  .00000012  00000-0  87689-5 0  9993,2 56788  70.0016 341.6694 0002969 270.8058  89.2761 14.98346491 66867,6950.142,96.106,574.07,569.943,0.0
56788.0,STARLINK-6336,PAYLOAD,2024-08-09 11:43:54,14.98322906,0.0002321,70.0035,339.8204,239.4491,120.644,0.00017459,1.99e-05,0.0,0 STARLINK-6336,1 56788U 23078X   24222.48882743  .00001990  00000-0  17459-3 0  9998,2 56788  70.0035 339.8204 0002321 239.4491 120.6440 14.98322906 66979,6950.215,96.107,573.693,570.467,0.0
56788.0,STARLINK-6336,PAYLOAD,2024-08-09 14:56:10,14.98327991,0.0002749,70.0018,339.482,262.1932,97.8915,0.0002,2.294e-05,0.0,0 STARLINK-6336,1 56788U 23078X   24222.62234467  .00002294  00000-0  20000-3 0  9992,2 56788  70.0018 339.4820 0002749 262.1932  97.8915 14.98327991 66732,6950.199,96.107,573.975,570.153,0.0
56788.0,STARLINK-6336,PAYLOAD,2024-08-09 18:08:26,14.9833059,0.0002455,70.0026,339.1458,257.9705,102.1179,0.00023885,2.758e-05,0.0,0 STARLINK-6336,1 56788U 23078X   24222.75586199  .00002758  00000-0  23885-3 0  9997,2 56788  70.0026 339.1458 0002455 257.9705 102.1179 14.98330590 66752,6950.191,96.107,573.762,570.35,0.0
56788.0,STARLINK-6336,PAYLOAD,2024-08-10 11:45:56,14.98322846,0.0002291,70.0035,337.2925,260.6835,99.4065,-2.4353e-06,-1.22e-06,0.0,0 STARLINK-6336,1 56788U 23078X   24223.49023450 -.00000122  00000-0 -24353-5 0  9993,2 56788  70.0035 337.2925 0002291 260.6835  99.4065 14.98322846 67122,6950.215,96.107,573.672,570.488,0.0
56788.0,STARLINK-6336,PAYLOAD,2024-08-10 16:34:20,14.98326992,0.0002736,70.0012,336.7859,268.0053,92.0792,-5.6565e-06,-1.6e-06,0.0,0 STARLINK-6336,1 56788U 23078X   24223.69051234 -.00000160  00000-0 -56565-5 0  9998,2 56788  70.0012 336.7859 0002736 268.0053  92.0792 14.98326992 66890,6950.202,96.107,573.969,570.166,0.0
56788.0,STARLINK-6336,PAYLOAD,2024-08-11 00:35:00,14.98333124,0.0002721,70.0025,335.9451,268.625,91.4597,-9.2275e-05,-1.194e-05,0.0,0 STARLINK-6336,1 56788U 23078X   24224.02431051 -.00001194  00000-0 -92275-4 0  9990,2 56788  70.0025 335.9451 0002721 268.6250  91.4597 14.98333124 67209,6950.183,96.107,573.939,570.157,0.0
56788.0,STARLINK-6336,PAYLOAD,2024-08-11 13:24:04,14.98333397,0.000319,70.0011,334.5981,270.3256,89.7538,3.2179e-05,2.91e-06,0.0,0 STARLINK-6336,1 56788U 23078X   24224.55838851  .00000291  00000-0  32179-4 0  9999,2 56788  70.0011 334.5981 0003190 270.3256  89.7538 14.98333397 67021,6950.182,96.107,574.264,569.83,0.0
56788.0,STARLINK-6336,PAYLOAD,2024-08-12 10:13:48,14.98336885,0.0003194,70.0012,332.41,268.6684,91.4109,0.00017227,1.963e-05,0.0,0 STARLINK-6336,1 56788U 23078X   24225.42626042  .00001963  00000-0  17227-3 0  9996,2 56788  70.0012 332.4100 0003194 268.6684  91.4109 14.98336885 67413,6950.172,96.107,574.256,569.817,0.0
56788.0,STARLINK-6336,PAYLOAD,2024-08-12 16:38:19,14.98354797,0.0002747,69.9991,331.7298,244.9002,115.1872,0.0001663,1.893e-05,0.0,0 STARLINK-6336,1 56788U 23078X   24225.69328537  .00001893  00000-0  16630-3 0  9992,2 56788  69.9991 331.7298 0002747 244.9002 115.1872 14.98354797 67457,6950.116,96.105,573.89,570.072,0.0
56788.0,STARLINK-6336,PAYLOAD,2024-08-13 00:39:00,14.98348619,0.0002734,70.0037,330.8985,275.0044,85.0803,0.00026078,3.021e-05,0.0,0 STARLINK-6336,1 56788U 23078X   24226.02708621  .00003021  00000-0  26078-3 0  9998,2 56788  70.0037 330.8985 0002734 275.0044  85.0803 14.98348619 67502,6950.135,96.106,573.9,570.1,0.0
56788.0,STARLINK-6336,PAYLOAD,2024-08-13 13:28:07,14.98317534,0.0002843,70.0003,329.5469,263.885,96.1986,-0.00016715,-2.086e-05,0.0,0 STARLINK-6336,1 56788U 23078X   24226.56119734 -.00002086  00000-0 -16715-3 0  9997,2 56788  70.0003 329.5469 0002843 263.8850  96.1986 14.98317534 67583,6950.231,96.108,574.072,570.12,0.0
